STARLETTE               
1 07646U 75010A   23235.21240573 -.00000123  00000+0  13948-4 0  9990
2 07646  49.8233 206.0663 0205758 263.8655  93.8761 13.82320903452184
LAGEOS 1                
1 08820U 76039A   23234.17237411  .00000005  00000+0  00000+0 0  9996
2 08820 109.8085 186.5162 0044871 163.3659 191.3816  6.38664748847760
AJISAI (EGS)            
1 16908U 86061A   23236.86310432 -.00000094  00000+0  25674-4 0  9999
2 16908  50.0091  66.3552 0011514  85.4048  69.2900 12.44501503352819
COSMOS 1989 (ETALON 1)  
1 19751U 89001C   23236.78081552  .00000012  00000+0  00000+0 0  9994
2 19751  64.4311 107.4726 0023986 214.7361 119.4389  2.13156237269533
COSMOS 2024 (ETALON 2)  
1 20026U 89039C   23234.60585591 -.00000062  00000+0  00000+0 0  9999
2 20026  65.4505 345.7601 0018996 217.9973 229.1584  2.13204381266542
LAGEOS 2                
1 22195U 92070B   23233.32273503 -.00000009  00000+0  00000+0 0  9993
2 22195  52.6387 198.1318 0138801  96.3759   2.8952  6.47294137728885
STELLA                  
1 22824U 93061B   23234.78391574 -.00000040  00000+0  25096-5 0  9996
2 22824  98.9243 270.6767 0006226 356.4020  98.9617 14.27408440558075
LARES                   
1 38077U 12006A   23234.45854660 -.00000037  00000+0  98102-5 0  9991
2 38077  69.4874 251.1110 0011341 288.6094  71.3700 12.54931451527976
